[Satellite]
VERSION=1.1
NAME=CYGFM07
NICKNAME=CYGFM07
TLE1=1 41890U 16078G   17186.25671968  .00000316  00000-0  18629-4 0  9991
TLE2=2 41890  34.9520 271.7345 0013458 144.6887 215.4717 15.14237483 30586
